[ {
  "OBJECT_ID": "2002-032A",
  "OBJECT_NAME": "NOAA 17",
  "NORAD_CAT_ID": "27453",
  "OBJECT_TYPE": "PAYLOAD",
  "PERIOD": "101.055",
  "INCLINATION": "98.3904",
  "APOGEE": "816.919",
  "PERIGEE": "800.359",
  "ECCENTRICITY": "0.0011521",
  "MEAN_MOTION": "14.24956861",
  "TLE_LINE1": "1 27453U 02032A   16239.49281589  .00000019  00000-0  25780-4 0  9991",
  "TLE_LINE2": "2 27453  98.3904 210.1203 0011521 349.5959  10.4981 14.24956861736790",
  "LAUNCH_DATE": "2002-06-24",
  "LAUNCH_SITE": "AIR FORCE WESTERN TEST RANGE",
  "OWNER": "UNITED STATES OF AMERICA",
  "ORBIT_TYPE": "Low Earth Orbit",
  "OPERATIONAL_STATUS": "Nonoperational"
}, {
  "OBJECT_ID": "2002-046A",
  "OBJECT_NAME": "NADEZHDA 7",
  "NORAD_CAT_ID": "27534",
  "OBJECT_TYPE": "PAYLOAD",
  "PERIOD": "104.904",
  "INCLINATION": "82.9331",
  "APOGEE": "1016.225",
  "PERIGEE": "963.755",
  "ECCENTRICITY": "0.0035606",
  "MEAN_MOTION": "13.72673488",
  "TLE_LINE1": "1 27534U 02046A   16239.13790603  .00000033  00000-0  19842-4 0  9997",
  "TLE_LINE2": "2 27534  82.9331  97.0404 0035606 204.0075 271.3399 13.72673488697208",
  "LAUNCH_DATE": "2002-09-26",
  "LAUNCH_SITE": "PLESETSK MISSILE AND SPACE COMPLEX",
  "OWNER": "COMMONWEALTH OF INDEPENDENT STATES",
  "ORBIT_TYPE": "Low Earth Orbit",
  "OPERATIONAL_STATUS": "Nonoperational"
}, {
  "OBJECT_ID": "2002-056A",
  "OBJECT_NAME": "ADEOS 2",
  "NORAD_CAT_ID": "27597",
  "OBJECT_TYPE": "PAYLOAD",
  "PERIOD": "100.894",
  "INCLINATION": "98.3285",
  "APOGEE": "802.588",
  "PERIGEE": "799.432",
  "ECCENTRICITY": "0.0002198",
  "MEAN_MOTION": "14.27228886",
  "TLE_LINE1": "1 27597U 02056A   16239.47308157  .00000046  00000-0  35691-4 0  9997",
  "TLE_LINE2": "2 27597  98.3285 216.2367 0002198  98.2450 261.8981 14.27228886713387",
  "LAUNCH_DATE": "2002-12-14",
  "LAUNCH_SITE": "TANEGASHIMA SPACE CENTER",
  "OWNER": "JAPAN",
  "ORBIT_TYPE": "Low Earth Orbit",
  "OPERATIONAL_STATUS": "Nonoperational"
}, {
  "OBJECT_ID": "2002-056D",
  "OBJECT_NAME": "MICRO LABSAT",
  "NORAD_CAT_ID": "27600",
  "OBJECT_TYPE": "PAYLOAD",
  "PERIOD": "100.732",
  "INCLINATION": "98.3441",
  "APOGEE": "801.723",
  "PERIGEE": "784.894",
  "ECCENTRICITY": "0.0011733",
  "MEAN_MOTION": "14.29528607",
  "TLE_LINE1": "1 27600U 02056D   16238.99212179  .00000018  00000-0  23067-4 0  9999",
  "TLE_LINE2": "2 27600  98.3441 204.1956 0011733  41.1045 319.1019 14.29528607714621",
  "LAUNCH_DATE": "2002-12-14",
  "LAUNCH_SITE": "TANEGASHIMA SPACE CENTER",
  "OWNER": "JAPAN",
  "ORBIT_TYPE": "Low Earth Orbit",
  "OPERATIONAL_STATUS": "Nonoperational"
}, {
  "OBJECT_ID": "2002-058A",
  "OBJECT_NAME": "RUBIN 2",
  "NORAD_CAT_ID": "27605",
  "OBJECT_TYPE": "PAYLOAD",
  "PERIOD": "97.638",
  "INCLINATION": "64.5552",
  "APOGEE": "688.713",
  "PERIGEE": "602.705",
  "ECCENTRICITY": "0.0061226",
  "MEAN_MOTION": "14.74824796",
  "TLE_LINE1": "1 27605U 02058A   16239.19989163 -.00000032  00000-0  16345-4 0  9991",
  "TLE_LINE2": "2 27605  64.5552 288.6178 0061226 201.3176 158.5375 14.74824796735973",
  "LAUNCH_DATE": "2002-12-20",
  "LAUNCH_SITE": "TYURATAM MISSILE AND SPACE COMPLEX",
  "OWNER": "GERMANY",
  "ORBIT_TYPE": "Low Earth Orbit",
  "OPERATIONAL_STATUS": "Nonoperational"
}, {
  "OBJECT_ID": "2002-058D",
  "OBJECT_NAME": "UNISAT 2",
  "NORAD_CAT_ID": "27608",
  "OBJECT_TYPE": "PAYLOAD",
  "PERIOD": "97.448",
  "INCLINATION": "64.5538",
  "APOGEE": "665.696",
  "PERIGEE": "607.517",
  "ECCENTRICITY": "0.0041469",
  "MEAN_MOTION": "14.77696259",
  "TLE_LINE1": "1 27608U 02058D   16239.44808186  .00000014  00000-0  21860-4 0  9994",
  "TLE_LINE2": "2 27608  64.5538 236.5727 0041469 199.3016 160.6519 14.77696259737080",
  "LAUNCH_DATE": "2002-12-20",
  "LAUNCH_SITE": "TYURATAM MISSILE AND SPACE COMPLEX",
  "OWNER": "ITALY",
  "ORBIT_TYPE": "Low Earth Orbit",
  "OPERATIONAL_STATUS": "Nonoperational"
}, {
  "OBJECT_ID": "2002-058E",
  "OBJECT_NAME": "TRAILBLAZER 2",
  "NORAD_CAT_ID": "27609",
  "OBJECT_TYPE": "PAYLOAD",
  "PERIOD": "97.405",
  "INCLINATION": "64.5561",
  "APOGEE": "651.455",
  "PERIGEE": "617.599",
  "ECCENTRICITY": "0.0024139",
  "MEAN_MOTION": "14.78353666",
  "TLE_LINE1": "1 27609U 02058E   16238.93530322 -.00000073 +00000-0 +94875-5 0  9995",
  "TLE_LINE2": "2 27609 064.5561 189.0592 0024139 200.5961 159.4172 14.78353666737925",
  "LAUNCH_DATE": "2002-12-20",
  "LAUNCH_SITE": "TYURATAM MISSILE AND SPACE COMPLEX",
  "OWNER": "UNITED STATES OF AMERICA",
  "ORBIT_TYPE": "Low Earth Orbit",
  "OPERATIONAL_STATUS": "Nonoperational"
}, {
  "OBJECT_ID": "2003-017A",
  "OBJECT_NAME": "GALEX",
  "NORAD_CAT_ID": "27783",
  "OBJECT_TYPE": "PAYLOAD",
  "PERIOD": "98.498",
  "INCLINATION": "28.9982",
  "APOGEE": "689.469",
  "PERIGEE": "684.281",
  "ECCENTRICITY": "0.0003671",
  "MEAN_MOTION": "14.6195343",
  "TLE_LINE1": "1 27783U 03017A   16238.93324000 +.00000203 +00000-0 +18916-4 0  9993",
  "TLE_LINE2": "2 27783 028.9982 089.4792 0003671 013.5518 346.5168 14.61953430712173",
  "LAUNCH_DATE": "2003-04-28",
  "LAUNCH_SITE": "AIR FORCE EASTERN TEST RANGE",
  "OWNER": "UNITED STATES OF AMERICA",
  "ORBIT_TYPE": "Low Earth Orbit",
  "OPERATIONAL_STATUS": "Nonoperational"
}, {
  "OBJECT_ID": "2003-023A",
  "OBJECT_NAME": "COSMOS 2398",
  "NORAD_CAT_ID": "27818",
  "OBJECT_TYPE": "PAYLOAD",
  "PERIOD": "104.946",
  "INCLINATION": "82.9451",
  "APOGEE": "1014.890",
  "PERIGEE": "968.966",
  "ECCENTRICITY": "0.0031156",
  "MEAN_MOTION": "13.72132014",
  "TLE_LINE1": "1 27818U 03023A   16239.22211433  .00000016  00000-0  11706-5 0  9990",
  "TLE_LINE2": "2 27818  82.9451 254.1445 0031156 179.0898 181.0315 13.72132014662489",
  "LAUNCH_DATE": "2003-06-04",
  "LAUNCH_SITE": "PLESETSK MISSILE AND SPACE COMPLEX",
  "OWNER": "COMMONWEALTH OF INDEPENDENT STATES",
  "ORBIT_TYPE": "Low Earth Orbit",
  "OPERATIONAL_STATUS": "Nonoperational"
}, {
  "OBJECT_ID": "2003-031C",
  "OBJECT_NAME": "DTUSAT",
  "NORAD_CAT_ID": "27842",
  "OBJECT_TYPE": "PAYLOAD",
  "PERIOD": "101.262",
  "INCLINATION": "98.6845",
  "APOGEE": "825.954",
  "PERIGEE": "810.908",
  "ECCENTRICITY": "0.0010454",
  "MEAN_MOTION": "14.22049584",
  "TLE_LINE1": "1 27842U 03031C   16239.01962317  .00000037  00000-0  36592-4 0  9999",
  "TLE_LINE2": "2 27842  98.6845 245.3283 0010454  94.4856 265.7516 14.22049584682515",
  "LAUNCH_DATE": "2003-06-30",
  "LAUNCH_SITE": "PLESETSK MISSILE AND SPACE COMPLEX",
  "OWNER": "DENMARK",
  "ORBIT_TYPE": "Low Earth Orbit",
  "OPERATIONAL_STATUS": "Nonoperational"
}, {
  "OBJECT_ID": "2003-031F",
  "OBJECT_NAME": "QUAKESAT",
  "NORAD_CAT_ID": "27845",
  "OBJECT_TYPE": "PAYLOAD",
  "PERIOD": "101.270",
  "INCLINATION": "98.6996",
  "APOGEE": "825.740",
  "PERIGEE": "811.876",
  "ECCENTRICITY": "0.0009632",
  "MEAN_MOTION": "14.21937931",
  "TLE_LINE1": "1 27845U 03031F   16239.05488314  .00000084  00000-0  58012-4 0  9999",
  "TLE_LINE2": "2 27845  98.6996 247.2659 0009632 137.5378 222.6546 14.21937931682221",
  "LAUNCH_DATE": "2003-06-30",
  "LAUNCH_SITE": "PLESETSK MISSILE AND SPACE COMPLEX",
  "OWNER": "UNITED STATES OF AMERICA",
  "ORBIT_TYPE": "Low Earth Orbit",
  "OPERATIONAL_STATUS": "Nonoperational"
}, {
  "OBJECT_ID": "2003-031G",
  "OBJECT_NAME": "AAU CUBESAT",
  "NORAD_CAT_ID": "27846",
  "OBJECT_TYPE": "PAYLOAD",
  "PERIOD": "101.262",
  "INCLINATION": "98.6846",
  "APOGEE": "825.923",
  "PERIGEE": "810.918",
  "ECCENTRICITY": "0.0010425",
  "MEAN_MOTION": "14.22052676",
  "TLE_LINE1": "1 27846U 03031G   16238.94980555 +.00000042 +00000-0 +38884-4 0  9990",
  "TLE_LINE2": "2 27846 098.6846 245.2588 0010425 094.7185 265.5183 14.22052676682359",
  "LAUNCH_DATE": "2003-06-30",
  "LAUNCH_SITE": "PLESETSK MISSILE AND SPACE COMPLEX",
  "OWNER": "DENMARK",
  "ORBIT_TYPE": "Low Earth Orbit",
  "OPERATIONAL_STATUS": "Nonoperational"
}, {
  "OBJECT_ID": "2003-031H",
  "OBJECT_NAME": "CANX-1",
  "NORAD_CAT_ID": "27847",
  "OBJECT_TYPE": "PAYLOAD",
  "PERIOD": "101.265",
  "INCLINATION": "98.6853",
  "APOGEE": "826.122",
  "PERIGEE": "811.052",
  "ECCENTRICITY": "0.001047",
  "MEAN_MOTION": "14.22003241",
  "TLE_LINE1": "1 27847U 03031H   16238.94755241 +.00000035 +00000-0 +35424-4 0  9992",
  "TLE_LINE2": "2 27847 098.6853 245.2092 0010470 095.0424 265.1949 14.22003241682459",
  "LAUNCH_DATE": "2003-06-30",
  "LAUNCH_SITE": "PLESETSK MISSILE AND SPACE COMPLEX",
  "OWNER": "CANADA",
  "ORBIT_TYPE": "Low Earth Orbit",
  "OPERATIONAL_STATUS": "Nonoperational"
}, {
  "OBJECT_ID": "2003-042C",
  "OBJECT_NAME": "NIGERIASAT 1",
  "NORAD_CAT_ID": "27941",
  "OBJECT_TYPE": "PAYLOAD",
  "PERIOD": "97.205",
  "INCLINATION": "97.7566",
  "APOGEE": "660.685",
  "PERIGEE": "589.108",
  "ECCENTRICITY": "0.0051104",
  "MEAN_MOTION": "14.81404256",
  "TLE_LINE1": "1 27941U 03042C   16239.11066782  .00000167  00000-0  27473-4 0  9995",
  "TLE_LINE2": "2 27941  97.7566  60.1729 0051104 102.4172 258.2766 14.81404256692781",
  "LAUNCH_DATE": "2003-09-27",
  "LAUNCH_SITE": "PLESETSK MISSILE AND SPACE COMPLEX",
  "OWNER": "NIGERIA",
  "ORBIT_TYPE": "Low Earth Orbit",
  "OPERATIONAL_STATUS": "Nonoperational"
}, {
  "OBJECT_ID": "2003-042D",
  "OBJECT_NAME": "UK-DMC",
  "NORAD_CAT_ID": "27942",
  "OBJECT_TYPE": "PAYLOAD",
  "PERIOD": "97.369",
  "INCLINATION": "97.7508",
  "APOGEE": "675.889",
  "PERIGEE": "589.656",
  "ECCENTRICITY": "0.0061499",
  "MEAN_MOTION": "14.78908783",
  "TLE_LINE1": "1 27942U 03042D   16238.94158776 +.00000131 +00000-0 +24378-4 0  9993",
  "TLE_LINE2": "2 27942 097.7508 055.4264 0061499 318.2260 041.4265 14.78908783692597",
  "LAUNCH_DATE": "2003-09-27",
  "LAUNCH_SITE": "PLESETSK MISSILE AND SPACE COMPLEX",
  "OWNER": "UNITED KINGDOM",
  "ORBIT_TYPE": "Low Earth Orbit",
  "OPERATIONAL_STATUS": "Nonoperational"
}]